SPACEMOBILE-004         
1 61049U 24163E   26202.27362846  .00015015  00000+0  68855-3 0  9992
2 61049  52.9720 152.1723 0005157 251.3714 108.6720 15.20649512102955
CZ-8A R/B               
1 66004U 25231K   26202.57014866 -.00000077  00000+0  31379-4 0  9999
2 66004  50.0030 253.0366 0116541 345.0655  14.6831 14.30163511 39861
SZ-21 MODULE            
1 66515U 25246C   26202.96291009  .00053835  00000+0  28882-3 0  9994
2 66515  41.4722  90.2512 0009460 262.6462  97.3309 15.79324031 39234
SPACEMOBILE-006         
1 67232U 25309A   26203.18674793  .00002664  00000+0  14204-3 0  9998
2 67232  52.9952 171.3039 0009520 239.2696 120.7360 15.18684570 31919
SPACEMOBILE-008         
1 69589U 26139A   26203.02362932  .00000387  00000+0  38732-4 0  9992
2 69589  52.9952 104.4056 0005288  72.6023 287.5546 15.12810954  5259
SPACEMOBILE-009         
1 69590U 26139B   26203.02606359  .00001404  00000+0  96209-4 0  9992
2 69590  52.9945 104.4147 0005584  69.1876 290.9713 15.12712567  5255
SPACEMOBILE-010         
1 69591U 26139C   26202.96383946  .00001392  00000+0  95955-4 0  9992
2 69591  52.9950 104.7416 0005574  61.5315 298.6237 15.12549374  5257
